ALOS-2                  
1 39766U 14029A   26085.96505973  .00001766  00000+0  24347-3 0  9994
2 39766  97.9185 184.3105 0001908 104.7258 255.4166 14.79438986639421
YAOGAN-29               
1 41038U 15069A   26085.99976565  .00000279  00000+0  40975-4 0  9990
2 41038  98.0125 114.4743 0000668   9.0088 351.1137 14.83013495558447
ASTRO-H (HITOMI)        
1 41337U 16012A   26085.68797876  .00002946  00000+0  17057-3 0  9990
2 41337  30.9987 246.8445 0009609 142.6619 217.4689 15.10108075554809
HXMT (HUIYAN)           
1 42758U 17034A   26085.95612568  .00005418  00000+0  27223-3 0  9990
2 42758  43.0144 280.6633 0032141 341.3842  18.5829 15.17678555485165
SAOCOM 1A               
1 43641U 18076A   26085.97570517  .00000239  00000+0  36586-4 0  9997
2 43641  97.8907 273.9043 0001491  83.1348 277.0034 14.82158505403920
H-2A R/B                
1 43682U 18084L   26085.54290738  .00019154  00000+0  44617-3 0  9997
2 43682  98.8711 306.5404 0023967 326.7333  33.2402 15.42046506408374
SAOCOM 1B               
1 46265U 20059A   26085.93942795  .00000879  00000+0  11693-3 0  9994
2 46265  97.8906 272.9663 0001510  87.6784 272.4602 14.82154974301301
CSS (TIANHE)            
1 48274U 21035A   26085.92437350  .00022168  00000+0  25435-3 0  9990
2 48274  41.4668 103.2237 0004238  32.2282 327.8815 15.61531781280305
COSMOS 2550             
1 48865U 21056A   26085.99295782 -.00000188  00000+0  12742-6 0  9996
2 48865  67.1452 348.5418 0008320 269.0953  90.9248 15.33832765266119
CZ-2C R/B               
1 52794U 22058K   26085.80010260  .00036120  00000+0  50425-3 0  9992
2 52794  50.1867 230.1901 0041479 274.0304  85.5926 15.55455273212795
CZ-2C R/B               
1 54039U 22132E   26085.98182562  .00052241  00000+0  56005-3 0  9995
2 54039  97.2959  89.8447 0018125  35.1570 325.0881 15.63463210193070
GSLV R/B                
1 54149U 22138AN  26085.23353480  .00002455  00000+0  21043-3 0  9996
2 54149  87.3864 160.8245 0024097  92.1088 268.2903 14.96880005186407
