CCSDS_OMM_VERS = 2.0
CREATION_DATE  = 
ORIGINATOR     = 

OBJECT_NAME    = ALOS-2
OBJECT_ID      = 2014-029A
CENTER_NAME    = EARTH
REF_FRAME      = TEME
TIME_SYSTEM    = UTC
MEAN_ELEMENT_THEORY = SGP/SGP4

EPOCH          = 2026-03-26T23:09:41.160672
MEAN_MOTION    = 14.79438986
ECCENTRICITY   = .00019084
INCLINATION    = 97.9185
RA_OF_ASC_NODE = 184.3105
ARG_OF_PERICENTER = 104.7258
MEAN_ANOMALY   = 255.4166

EPHEMERIS_TYPE = 0
CLASSIFICATION_TYPE = U
NORAD_CAT_ID   = 39766
ELEMENT_SET_NO = 999
REV_AT_EPOCH   = 63942
BSTAR          = .24347494E-3
MEAN_MOTION_DOT = .1766E-4
MEAN_MOTION_DDOT = 0

CCSDS_OMM_VERS = 2.0
CREATION_DATE  = 
ORIGINATOR     = 

OBJECT_NAME    = YAOGAN-29
OBJECT_ID      = 2015-069A
CENTER_NAME    = EARTH
REF_FRAME      = TEME
TIME_SYSTEM    = UTC
MEAN_ELEMENT_THEORY = SGP/SGP4

EPOCH          = 2026-03-26T23:59:39.752160
MEAN_MOTION    = 14.83013495
ECCENTRICITY   = .00006685
INCLINATION    = 98.0125
RA_OF_ASC_NODE = 114.4743
ARG_OF_PERICENTER = 9.0088
MEAN_ANOMALY   = 351.1137

EPHEMERIS_TYPE = 0
CLASSIFICATION_TYPE = U
NORAD_CAT_ID   = 41038
ELEMENT_SET_NO = 999
REV_AT_EPOCH   = 55844
BSTAR          = .40975331E-4
MEAN_MOTION_DOT = .279E-5
MEAN_MOTION_DDOT = 0

CCSDS_OMM_VERS = 2.0
CREATION_DATE  = 
ORIGINATOR     = 

OBJECT_NAME    = ASTRO-H (HITOMI)
OBJECT_ID      = 2016-012A
CENTER_NAME    = EARTH
REF_FRAME      = TEME
TIME_SYSTEM    = UTC
MEAN_ELEMENT_THEORY = SGP/SGP4

EPOCH          = 2026-03-26T16:30:41.364864
MEAN_MOTION    = 15.10108075
ECCENTRICITY   = .00096099
INCLINATION    = 30.9987
RA_OF_ASC_NODE = 246.8445
ARG_OF_PERICENTER = 142.6619
MEAN_ANOMALY   = 217.4689

EPHEMERIS_TYPE = 0
CLASSIFICATION_TYPE = U
NORAD_CAT_ID   = 41337
ELEMENT_SET_NO = 999
REV_AT_EPOCH   = 55480
BSTAR          = .17056893E-3
MEAN_MOTION_DOT = .2946E-4
MEAN_MOTION_DDOT = 0

CCSDS_OMM_VERS = 2.0
CREATION_DATE  = 
ORIGINATOR     = 

OBJECT_NAME    = HXMT (HUIYAN)
OBJECT_ID      = 2017-034A
CENTER_NAME    = EARTH
REF_FRAME      = TEME
TIME_SYSTEM    = UTC
MEAN_ELEMENT_THEORY = SGP/SGP4

EPOCH          = 2026-03-26T22:56:49.258752
MEAN_MOTION    = 15.17678555
ECCENTRICITY   = .00321417
INCLINATION    = 43.0144
RA_OF_ASC_NODE = 280.6633
ARG_OF_PERICENTER = 341.3842
MEAN_ANOMALY   = 18.5829

EPHEMERIS_TYPE = 0
CLASSIFICATION_TYPE = U
NORAD_CAT_ID   = 42758
ELEMENT_SET_NO = 999
REV_AT_EPOCH   = 48516
BSTAR          = .27222951E-3
MEAN_MOTION_DOT = .5418E-4
MEAN_MOTION_DDOT = 0

CCSDS_OMM_VERS = 2.0
CREATION_DATE  = 
ORIGINATOR     = 

OBJECT_NAME    = SAOCOM 1A
OBJECT_ID      = 2018-076A
CENTER_NAME    = EARTH
REF_FRAME      = TEME
TIME_SYSTEM    = UTC
MEAN_ELEMENT_THEORY = SGP/SGP4

EPOCH          = 2026-03-26T23:25:00.926688
MEAN_MOTION    = 14.82158505
ECCENTRICITY   = .00014914
INCLINATION    = 97.8907
RA_OF_ASC_NODE = 273.9043
ARG_OF_PERICENTER = 83.1348
MEAN_ANOMALY   = 277.0034

EPHEMERIS_TYPE = 0
CLASSIFICATION_TYPE = U
NORAD_CAT_ID   = 43641
ELEMENT_SET_NO = 999
REV_AT_EPOCH   = 40392
BSTAR          = .36585674E-4
MEAN_MOTION_DOT = .239E-5
MEAN_MOTION_DDOT = 0

CCSDS_OMM_VERS = 2.0
CREATION_DATE  = 
ORIGINATOR     = 

OBJECT_NAME    = H-2A R/B
OBJECT_ID      = 2018-084L
CENTER_NAME    = EARTH
REF_FRAME      = TEME
TIME_SYSTEM    = UTC
MEAN_ELEMENT_THEORY = SGP/SGP4

EPOCH          = 2026-03-26T13:01:47.197632
MEAN_MOTION    = 15.42046506
ECCENTRICITY   = .00239671
INCLINATION    = 98.8711
RA_OF_ASC_NODE = 306.5404
ARG_OF_PERICENTER = 326.7333
MEAN_ANOMALY   = 33.2402

EPHEMERIS_TYPE = 0
CLASSIFICATION_TYPE = U
NORAD_CAT_ID   = 43682
ELEMENT_SET_NO = 999
REV_AT_EPOCH   = 40837
BSTAR          = .44616851E-3
MEAN_MOTION_DOT = .19154E-3
MEAN_MOTION_DDOT = 0

CCSDS_OMM_VERS = 2.0
CREATION_DATE  = 
ORIGINATOR     = 

OBJECT_NAME    = SAOCOM 1B
OBJECT_ID      = 2020-059A
CENTER_NAME    = EARTH
REF_FRAME      = TEME
TIME_SYSTEM    = UTC
MEAN_ELEMENT_THEORY = SGP/SGP4

EPOCH          = 2026-03-26T22:32:46.574880
MEAN_MOTION    = 14.82154974
ECCENTRICITY   = .00015106
INCLINATION    = 97.8906
RA_OF_ASC_NODE = 272.9663
ARG_OF_PERICENTER = 87.6784
MEAN_ANOMALY   = 272.4602

EPHEMERIS_TYPE = 0
CLASSIFICATION_TYPE = U
NORAD_CAT_ID   = 46265
ELEMENT_SET_NO = 999
REV_AT_EPOCH   = 30130
BSTAR          = .11692571E-3
MEAN_MOTION_DOT = .879E-5
MEAN_MOTION_DDOT = 0

CCSDS_OMM_VERS = 2.0
CREATION_DATE  = 
ORIGINATOR     = 

OBJECT_NAME    = CSS (TIANHE)
OBJECT_ID      = 2021-035A
CENTER_NAME    = EARTH
REF_FRAME      = TEME
TIME_SYSTEM    = UTC
MEAN_ELEMENT_THEORY = SGP/SGP4

EPOCH          = 2026-03-26T22:11:05.870400
MEAN_MOTION    = 15.61531781
ECCENTRICITY   = .00042385
INCLINATION    = 41.4668
RA_OF_ASC_NODE = 103.2237
ARG_OF_PERICENTER = 32.2282
MEAN_ANOMALY   = 327.8815

EPHEMERIS_TYPE = 0
CLASSIFICATION_TYPE = U
NORAD_CAT_ID   = 48274
ELEMENT_SET_NO = 999
REV_AT_EPOCH   = 28030
BSTAR          = .25434846E-3
MEAN_MOTION_DOT = .22168E-3
MEAN_MOTION_DDOT = 0

CCSDS_OMM_VERS = 2.0
CREATION_DATE  = 
ORIGINATOR     = 

OBJECT_NAME    = COSMOS 2550
OBJECT_ID      = 2021-056A
CENTER_NAME    = EARTH
REF_FRAME      = TEME
TIME_SYSTEM    = UTC
MEAN_ELEMENT_THEORY = SGP/SGP4

EPOCH          = 2026-03-26T23:49:51.555648
MEAN_MOTION    = 15.33832765
ECCENTRICITY   = .00083207
INCLINATION    = 67.1452
RA_OF_ASC_NODE = 348.5418
ARG_OF_PERICENTER = 269.0953
MEAN_ANOMALY   = 90.9248

EPHEMERIS_TYPE = 0
CLASSIFICATION_TYPE = U
NORAD_CAT_ID   = 48865
ELEMENT_SET_NO = 999
REV_AT_EPOCH   = 26611
BSTAR          = .127425E-6
MEAN_MOTION_DOT = -.188E-5
MEAN_MOTION_DDOT = 0

CCSDS_OMM_VERS = 2.0
CREATION_DATE  = 
ORIGINATOR     = 

OBJECT_NAME    = CZ-2C R/B
OBJECT_ID      = 2022-058K
CENTER_NAME    = EARTH
REF_FRAME      = TEME
TIME_SYSTEM    = UTC
MEAN_ELEMENT_THEORY = SGP/SGP4

EPOCH          = 2026-03-26T19:12:08.864640
MEAN_MOTION    = 15.55455273
ECCENTRICITY   = .0041479
INCLINATION    = 50.1867
RA_OF_ASC_NODE = 230.1901
ARG_OF_PERICENTER = 274.0304
MEAN_ANOMALY   = 85.5926

EPHEMERIS_TYPE = 0
CLASSIFICATION_TYPE = U
NORAD_CAT_ID   = 52794
ELEMENT_SET_NO = 999
REV_AT_EPOCH   = 21279
BSTAR          = .50425415E-3
MEAN_MOTION_DOT = .3612E-3
MEAN_MOTION_DDOT = 0

CCSDS_OMM_VERS = 2.0
CREATION_DATE  = 
ORIGINATOR     = 

OBJECT_NAME    = CZ-2C R/B
OBJECT_ID      = 2022-132E
CENTER_NAME    = EARTH
REF_FRAME      = TEME
TIME_SYSTEM    = UTC
MEAN_ELEMENT_THEORY = SGP/SGP4

EPOCH          = 2026-03-26T23:33:49.733568
MEAN_MOTION    = 15.63463210
ECCENTRICITY   = .00181258
INCLINATION    = 97.2959
RA_OF_ASC_NODE = 89.8447
ARG_OF_PERICENTER = 35.1570
MEAN_ANOMALY   = 325.0881

EPHEMERIS_TYPE = 0
CLASSIFICATION_TYPE = U
NORAD_CAT_ID   = 54039
ELEMENT_SET_NO = 999
REV_AT_EPOCH   = 19307
BSTAR          = .56005476E-3
MEAN_MOTION_DOT = .52241E-3
MEAN_MOTION_DDOT = 0

CCSDS_OMM_VERS = 2.0
CREATION_DATE  = 
ORIGINATOR     = 

OBJECT_NAME    = GSLV R/B
OBJECT_ID      = 2022-138AN
CENTER_NAME    = EARTH
REF_FRAME      = TEME
TIME_SYSTEM    = UTC
MEAN_ELEMENT_THEORY = SGP/SGP4

EPOCH          = 2026-03-26T05:36:17.406720
MEAN_MOTION    = 14.96880005
ECCENTRICITY   = .0024097
INCLINATION    = 87.3864
RA_OF_ASC_NODE = 160.8245
ARG_OF_PERICENTER = 92.1088
MEAN_ANOMALY   = 268.2903

EPHEMERIS_TYPE = 0
CLASSIFICATION_TYPE = U
NORAD_CAT_ID   = 54149
ELEMENT_SET_NO = 999
REV_AT_EPOCH   = 18640
BSTAR          = .21043E-3
MEAN_MOTION_DOT = .2455E-4
MEAN_MOTION_DDOT = 0

